ONEWEB-0709             
1 55172U 23004AJ  25094.72680861  .00000422  00000+0  11547-2 0  9994
2 55172  87.8792 108.5037 0001088  76.3279 283.7970 13.11415785108403
ONEWEB-0710             
1 55173U 23004AK  25094.74833321  .00000046  00000+0  85815-4 0  9991
2 55173  87.9002  93.2091 0001949  93.9140 266.2214 13.17651589109843
ONEWEB-0711             
1 55174U 23004AL  25094.77429384  .00000043  00000+0  84092-4 0  9998
2 55174  87.8795 108.4620 0002284 113.0592 247.0777 13.11419539108376
ONEWEB-0713             
1 55175U 23004AM  25094.56404800  .00000595  00000+0  16419-2 0  9990
2 55175  87.8793 108.5120 0002054 100.5946 259.5414 13.11416757108331
ONEWEB-0715             
1 55176U 23004AN  25094.78782707  .00000458  00000+0  12552-2 0  9992
2 55176  87.8793 108.4674 0001602  94.7701 265.3610 13.11415500108402
ONEWEB-0716             
1 55177U 23004AP  25094.74158949  .00000013  00000+0 -14581-7 0  9991
2 55177  87.9004  93.2084 0002151  85.2236 274.9141 13.17650780109844
ONEWEB-0717             
1 55178U 23004AQ  25094.72469750 -.00000255  00000+0 -69124-3 0  9993
2 55178  87.9000  93.1715 0001954 113.5441 246.5896 13.17648691109899
ONEWEB-0719             
1 55179U 23004AR  25094.73483359  .00000024  00000+0  27640-4 0  9996
2 55179  87.9001  93.1539 0002202  88.1157 272.0227 13.17646402109848
ONEWEB-0530             
1 55796U 23029A   25094.76166431  .00000095  00000+0  20273-3 0  9992
2 55796  87.9334   1.7547 0002099  95.4698 264.6675 13.20772472103277
ONEWEB-0534             
1 55797U 23029B   25094.74903558  .00000094  00000+0  19951-3 0  9990
2 55797  87.9335   1.7645 0001961  77.0360 283.0992 13.20772210103274
ONEWEB-0556             
1 55798U 23029C   25094.75534793  .00000074  00000+0  15109-3 0  9992
2 55798  87.9334   1.7559 0002632  84.6963 275.4470 13.20770422103276
ONEWEB-0562             
1 55799U 23029D   25094.74271977  .00000016  00000+0  79786-5 0  9993
2 55799  87.9335   1.7511 0002542  98.0633 262.0789 13.20770193103279
ONEWEB-0563             
1 55800U 23029E   25094.73640852  .00000053  00000+0  97835-4 0  9992
2 55800  87.9335   1.7668 0002023  70.9832 289.1520 13.20770725103262
ONEWEB-0564             
1 55801U 23029F   25094.73010066  .00000022  00000+0  22091-4 0  9999
2 55801  87.9336   1.7562 0002026  89.9284 270.2081 13.20770617103275
ONEWEB-0638             
1 55802U 23029G   25094.72627791 -.00000143  00000+0 -42004-3 0  9999
2 55802  87.9094  16.9584 0002421  82.2355 277.9050 13.14503548101798
ONEWEB-0639             
1 55803U 23029H   25094.73502292  .00000028  00000+0  36617-4 0  9993
2 55803  87.9248  32.1266 0002325  48.2106 311.9225 13.19723380101073
ONEWEB-0640             
1 55804U 23029J   25094.73579167 -.00000149  00000+0 -43768-3 0  9999
2 55804  87.9091  16.9463 0002622  73.1379 287.0038 13.14504656101813
ONEWEB-0641             
1 55805U 23029K   25094.73027867 -.00000436  00000+0 -11220-2 0  9991
2 55805  87.9246  32.1016 0001916  72.0350 288.0991 13.19725862101089
ONEWEB-0642             
1 55806U 23029L   25094.57390785 -.00000299  00000+0 -77816-3 0  9997
2 55806  87.9249  32.1669 0001912  49.4757 310.6542 13.19726650101059
ONEWEB-0643             
1 55807U 23029M   25094.78177410  .00000179  00000+0  44749-3 0  9993
2 55807  87.9095  16.9181 0001457  52.6250 307.5012 13.14503732101793
ONEWEB-0644             
1 55808U 23029N   25094.72080821  .00000034  00000+0  53768-4 0  9999
2 55808  87.9250  32.1398 0001873  62.3976 297.7347 13.19723285101076
ONEWEB-0645             
1 55809U 23029P   25094.79268280  .00000064  00000+0  12790-3 0  9996
2 55809  87.9250  32.1228 0002144  74.1399 285.9970 13.19726972101089
ONEWEB-0646             
1 55810U 23029Q   25094.74688061  .00000088  00000+0  18853-3 0  9998
2 55810  87.9248  32.1263 0001778  70.8558 289.2767 13.19727590101065
ONEWEB-0648             
1 55811U 23029R   25094.75006165  .00000075  00000+0  16709-3 0  9993
2 55811  87.9093  16.8991 0002332  53.4340 306.7004 13.14505412101795
ONEWEB-0649             
1 55812U 23029S   25094.78556387 -.00000394  00000+0 -10174-2 0  9998
2 55812  87.9248  32.1094 0002103  65.2905 294.8447 13.19724843101106
ONEWEB-0650             
1 55813U 23029T   25094.78082799 -.00000313  00000+0 -81456-3 0  9993
2 55813  87.9248  32.1182 0001887  72.7333 287.4006 13.19724690101076
ONEWEB-0652             
1 55814U 23029U   25094.73103023 -.00000139  00000+0 -41004-3 0  9994
2 55814  87.9094  16.9131 0001837  82.8907 277.2431 13.14502379101762
ONEWEB-0653             
1 55815U 23029V   25094.79129068  .00000004  00000+0 -22389-4 0  9994
2 55815  87.9099  16.8886 0002047  81.1730 278.9631 13.14505634101806
ONEWEB-0654             
1 55816U 23029W   25094.78653888  .00000129  00000+0  31258-3 0  9997
2 55816  87.9095  16.8918 0002016  90.7852 269.3509 13.14504707101826
ONEWEB-0656             
1 55817U 23029X   25094.72379378 -.00000001  00000+0 -33495-4 0  9998
2 55817  87.9335   1.6986 0001926  94.3535 265.7819 13.20774020103277
ONEWEB-0657             
1 55818U 23029Y   25094.77609515  .00000073  00000+0  15078-3 0  9996
2 55818  87.9249  32.1242 0001253  98.6620 261.4654 13.19728246101085
ONEWEB-0658             
1 55819U 23029Z   25094.77135386 -.00000203  00000+0 -54011-3 0  9994
2 55819  87.9249  32.0589 0001861  63.3695 296.7628 13.19725487101092
ONEWEB-0660             
1 55820U 23029AA  25094.76433949  .00000254  00000+0  65133-3 0  9992
2 55820  87.9092  16.8683 0002157  71.2746 288.8618 13.14504439101806
ONEWEB-0661             
1 55821U 23029AB  25094.72310012 -.00000107  00000+0 -32440-3 0  9998
2 55821  87.9095  16.9461 0002216  74.4008 285.7366 13.14504547101780
ONEWEB-0662             
1 55822U 23029AC  25094.75798807  .00000144  00000+0  35367-3 0  9994
2 55822  87.9093  16.9462 0002137  71.0635 289.0726 13.14504191101839
ONEWEB-0663             
1 55823U 23029AD  25094.78419509  .00000029  00000+0  38418-4 0  9990
2 55823  87.9335   1.7432 0002088  68.3344 291.8011 13.20831474103271
ONEWEB-0664             
1 55824U 23029AE  25094.78691067 -.00000030  00000+0 -10673-3 0  9998
2 55824  87.9334   1.7620 0002258  84.6863 275.4527 13.20769161103279
ONEWEB-0665             
1 55825U 23029AF  25094.71993623 -.00000102  00000+0 -30929-3 0  9991
2 55825  87.9096  16.9213 0002011  70.3626 289.7721 13.14503858101800
ONEWEB-0666             
1 55826U 23029AG  25094.78059523  .00000066  00000+0  13082-3 0  9999
2 55826  87.9334   1.7521 0001744  93.3014 266.8318 13.20769352103280
ONEWEB-0667             
1 55827U 23029AH  25094.77427794  .00000038  00000+0  62762-4 0  9997
2 55827  87.9334   1.6859 0002080  76.5388 283.5977 13.20769049103274
ONEWEB-0669             
1 55828U 23029AJ  25094.76955170  .00000056  00000+0  10498-3 0  9999
2 55828  87.9333   1.7228 0002200  98.7288 261.4095 13.20769894103278
ONEWEB-0670             
1 55829U 23029AK  25094.77384511  .00000296  00000+0  76292-3 0  9996
2 55829  87.9097  16.9264 0002306  77.0020 283.1367 13.14505935101835
ONEWEB-0671             
1 55830U 23029AL  25094.76663988 -.00000253  00000+0 -66513-3 0  9995
2 55830  87.9247  32.1196 0002270  76.8524 283.2862 13.19729508101070
ONEWEB-0672             
1 55831U 23029AM  25094.76481242  .00000054  00000+0  10192-3 0  9996
2 55831  87.9335   1.7090 0001678  89.0160 271.1166 13.20769423103276
ONEWEB-0673             
1 55832U 23029AN  25094.74292238 -.00000185  00000+0 -49429-3 0  9992
2 55832  87.9246  32.0892 0001857  72.2410 287.8926 13.19724205101077
ONEWEB-0674             
1 55833U 23029AP  25094.74212914 -.00000440  00000+0 -12215-2 0  9992
2 55833  87.9091  16.9232 0002432  78.4658 281.6744 13.14503175101815
ONEWEB-0675             
1 55834U 23029AQ  25094.75871296  .00000066  00000+0  13198-3 0  9992
2 55834  87.9252  32.1310 0001570  79.6869 280.4441 13.19728612101092
ONEWEB-0720             
1 55835U 23029AR  25094.75082928  .00000103  00000+0  22450-3 0  9992
2 55835  87.9250  32.1296 0002072  66.6034 293.5316 13.19725014101013
ONEWEB-0537             
1 56046U 23043A   25094.84412844  .00000080  00000+0  17546-3 0  9991
2 56046  87.9048 316.1403 0001520  89.1199 271.0106 13.16593916101285
ONEWEB-0538             
1 56047U 23043B   25094.83780174 -.00000033  00000+0 -12020-3 0  9997
2 56047  87.9050 316.1636 0001450  77.8150 282.3143 13.16592843101295
ONEWEB-0546             
1 56048U 23043C   25094.67314170  .00000011  00000+0 -44108-5 0  9998
2 56048  87.9050 316.1651 0001550 109.5355 250.5943 13.16594039101265
ONEWEB-0547             
1 56049U 23043D   25094.66446980  .00000033  00000+0  47929-4 0  9999
2 56049  87.9299 331.4265 0001640  75.8992 284.2324 13.21824976100295
ONEWEB-0548             
1 56050U 23043E   25094.62247725  .00000008  00000+0 -11911-4 0  9998
2 56050  87.9052 316.2161 0002258  85.4967 274.6422 13.16595092101252
ONEWEB-0549             
1 56051U 23043F   25094.65578480  .00000036  00000+0  54508-4 0  9996
2 56051  87.9305 331.4304 0001592  69.6700 290.4605 13.21823393100297
ONEWEB-0550             
1 56052U 23043G   25094.71886850  .00000027  00000+0  32746-4 0  9997
2 56052  87.9299 331.4151 0001942  82.3243 277.8111 13.21823071100309
ONEWEB-0551             
1 56053U 23043H   25094.76079386  .00000073  00000+0  16017-3 0  9994
2 56053  87.9119 346.5959 0001784  71.6838 288.4487 13.15549377 98755
ONEWEB-0552             
1 56054U 23043J   25094.71256320 -.00000042  00000+0 -13380-3 0  9993
2 56054  87.9299 331.4256 0001983  73.3898 286.7454 13.21823942100304
ONEWEB-0553             
1 56055U 23043K   25094.67947880 -.00000025  00000+0 -99520-4 0  9999
2 56055  87.9051 316.1921 0001743  95.6649 264.4681 13.16593709101276
ONEWEB-0554             
1 56056U 23043L   25094.66681133  .00000059  00000+0  12166-3 0  9990
2 56056  87.9051 316.2239 0002329  83.9570 276.1826 13.16593939101258
